{
  "norad_id": 57490,
  "name": "FENGYUN 3F",
  "history": [
    {
      "epoch": "2026-03-28T22:12:20.761920Z",
      "apogee_km": 826.2559668974272,
      "perigee_km": 824.964767219356,
      "latitude_deg": 1.9598825490697063e-05,
      "longitude_deg": -0.0133053691948579,
      "height_km": 828.4210005730788,
      "semi_major_axis_km": 7203.747367058391,
      "eccentricity": 8.962e-05,
      "inclination_deg": 98.6888,
      "raan_deg": 159.4119,
      "arg_perigee_deg": 80.8203,
      "mean_anomaly_deg": 279.3075,
      "mean_motion_rev_day": 14.19923841
    },
    {
      "epoch": "2026-03-29T04:58:13.823616Z",
      "apogee_km": 826.2525252730957,
      "perigee_km": 824.9673768170296,
      "latitude_deg": -3.681051493878257e-05,
      "longitude_deg": -101.48540509184197,
      "height_km": 828.4227163248471,
      "semi_major_axis_km": 7203.746951045063,
      "eccentricity": 8.92e-05,
      "inclination_deg": 98.6888,
      "raan_deg": 159.6887,
      "arg_perigee_deg": 80.9679,
      "mean_anomaly_deg": 279.1598,
      "mean_motion_rev_day": 14.19923964
    },
    {
      "epoch": "2026-03-30T04:38:49.525728Z",
      "apogee_km": 826.244394715749,
      "perigee_km": 824.9736539170599,
      "latitude_deg": -4.858971272567783e-05,
      "longitude_deg": -96.63782422495237,
      "height_km": 828.433239146986,
      "semi_major_axis_km": 7203.746024316404,
      "eccentricity": 8.82e-05,
      "inclination_deg": 98.6886,
      "raan_deg": 160.6574,
      "arg_perigee_deg": 81.9068,
      "mean_anomaly_deg": 278.2208,
      "mean_motion_rev_day": 14.19924238
    },
    {
      "epoch": "2026-03-30T06:20:17.789856Z",
      "apogee_km": 826.2419778939266,
      "perigee_km": 824.9758475123108,
      "latitude_deg": -1.3046767865592408e-05,
      "longitude_deg": -122.00585122500449,
      "height_km": 828.4336972636778,
      "semi_major_axis_km": 7203.745912703119,
      "eccentricity": 8.788e-05,
      "inclination_deg": 98.6886,
      "raan_deg": 160.7266,
      "arg_perigee_deg": 81.9292,
      "mean_anomaly_deg": 278.1984,
      "mean_motion_rev_day": 14.19924271
    },
    {
      "epoch": "2026-03-30T14:47:39.108768Z",
      "apogee_km": 826.237969114426,
      "perigee_km": 824.9791866121504,
      "latitude_deg": 3.9189567690980894e-05,
      "longitude_deg": 111.15414006831581,
      "height_km": 828.4362473095445,
      "semi_major_axis_km": 7203.745577863288,
      "eccentricity": 8.737e-05,
      "inclination_deg": 98.6886,
      "raan_deg": 161.0727,
      "arg_perigee_deg": 82.1469,
      "mean_anomaly_deg": 277.9807,
      "mean_motion_rev_day": 14.1992437
    }
  ]
}